OBJECT_NAME,OBJECT_ID,EPOCH,MEAN_MOTION,ECCENTRICITY,INCLINATION,RA_OF_ASC_NODE,ARG_OF_PERICENTER,MEAN_ANOMALY,EPHEMERIS_TYPE,CLASSIFICATION_TYPE,NORAD_CAT_ID,ELEMENT_SET_NO,REV_AT_EPOCH,BSTAR,MEAN_MOTION_DOT,MEAN_MOTION_DDOT
ONEWEB-0130,2020-100U,2026-06-08T00:59:38.023584,13.12444208,.00017166,87.8951,352.4714,90.8560,269.2765,0,U,47276,999,26344,-.4281475E-3,-.141E-5,0
ONEWEB-0131,2020-100V,2026-06-08T00:54:44.545248,13.12444721,.00017671,87.8938,352.4912,89.2303,270.9028,0,U,47277,999,26348,-.86398613E-3,-.298E-5,0
ONEWEB-0132,2020-100W,2026-06-08T01:36:14.315040,13.12443079,.00017287,87.8942,352.4869,87.1200,273.0127,0,U,47278,999,26338,.13362848E-2,.493E-5,0
ONEWEB-0133,2020-100X,2026-06-08T00:10:38.174592,13.12442755,.00016588,87.8955,352.4736,85.3158,274.8160,0,U,47279,999,26353,-.4249684E-5,.11E-6,0
ONEWEB-0134,2020-100Y,2026-06-08T01:16:42.356064,13.12444661,.00015661,87.8954,352.4619,93.4932,266.6376,0,U,47280,999,26351,.72686857E-3,.274E-5,0
ONEWEB-0135,2020-100Z,2026-06-08T02:25:00.355584,13.12444192,.00014543,87.8938,352.4759,89.0124,271.1171,0,U,47281,999,26354,-.1066021E-2,-.371E-5,0
ONEWEB-0136,2020-100AA,2026-06-08T01:02:03.972192,13.12444302,.00015195,87.8950,352.4686,94.3913,265.7389,0,U,47282,999,26346,-.17802286E-3,-.51E-6,0
ONEWEB-0137,2020-100AB,2026-06-08T00:01:04.796544,13.12442256,.00019428,87.8953,352.4863,89.0499,271.0852,0,U,47283,999,26336,.58207473E-3,.222E-5,0
ONEWEB-0138,2020-100AC,2026-06-08T01:19:09.422688,13.12443769,.00016369,87.8950,352.4817,93.5943,266.5373,0,U,47284,999,26345,.64395746E-3,.244E-5,0
ONEWEB-0139,2020-100AD,2026-06-08T02:17:53.342592,13.12443661,.00017562,87.8949,352.4597,90.0458,270.0871,0,U,47285,999,26353,-.10525601E-2,-.366E-5,0
ONEWEB-0140,2020-100AE,2026-06-08T01:11:49.891200,13.12444880,.00016934,87.8951,352.4598,83.4449,276.6872,0,U,47286,999,26349,.13005154E-3,.6E-6,0
ONEWEB-0141,2020-100AF,2026-06-08T02:17:29.527296,13.12443585,.00020842,87.8950,352.4552,91.2851,268.8517,0,U,47287,999,26348,-.84280816E-3,-.29E-5,0
ONEWEB-0142,2020-100AG,2026-06-08T00:11:03.539904,13.12441137,.00020206,87.8944,352.4950,100.2607,259.8750,0,U,47288,999,26346,.26387911E-4,.22E-6,0
ONEWEB-0143,2020-100AH,2026-06-08T02:15:15.183936,13.12443007,.0001866,87.8950,352.4763,88.6658,271.4685,0,U,47289,999,26345,-.12009271E-2,-.419E-5,0
ONEWEB-0144,2020-100AJ,2026-06-08T01:33:48.824352,13.12443751,.00016631,87.8954,352.4556,100.5959,259.5356,0,U,47290,999,26337,.12900639E-2,.477E-5,0
ONEWEB-0145,2020-100AK,2026-06-08T00:52:18.527520,13.12444172,.00017998,87.8943,352.4905,91.9509,268.1825,0,U,47291,999,26356,-.66580712E-3,-.227E-5,0
ONEWEB-0146,2020-100AL,2026-06-08T00:47:25.958112,13.12443708,.00018504,87.8951,352.4822,78.4194,281.7142,0,U,47292,999,26347,-.10857267E-2,-.378E-5,0
ONEWEB-0147,2020-100AM,2026-06-07T22:08:51.718848,13.12441966,.00016118,87.8951,352.4853,87.8129,272.3184,0,U,47293,999,26335,.39006426E-3,.153E-5,0
ONEWEB-0115,2021-025A,2026-06-07T22:59:51.040896,13.13469806,.00018031,87.8952,322.0614,92.6404,267.4931,0,U,48042,999,25238,-.29399533E-3,-.95E-6,0
ONEWEB-0152,2021-025B,2026-06-08T04:48:26.387424,13.13470094,.00017629,87.8952,322.0096,90.5631,269.5700,0,U,48043,999,25237,.62035914E-3,.239E-5,0
ONEWEB-0153,2021-025C,2026-06-08T04:16:44.534208,13.13469855,.00018838,87.8951,322.0177,97.0559,263.0784,0,U,48044,999,25236,-.85741611E-3,-.3E-5,0
ONEWEB-0154,2021-025D,2026-06-08T04:11:51.817056,13.13468924,.00017119,87.8950,322.0156,94.6779,265.4545,0,U,48045,999,25232,-.80953187E-3,-.283E-5,0
ONEWEB-0116,2021-025E,2026-06-08T05:07:55.054560,13.13469690,.00017334,87.8959,322.0039,90.7865,269.3463,0,U,48046,999,25247,.91131568E-3,.346E-5,0
ONEWEB-0150,2021-025F,2026-06-07T23:04:43.429728,13.13469692,.00020318,87.8955,322.0518,94.6797,265.4564,0,U,48047,999,25233,-.77424718E-4,-.16E-6,0
ONEWEB-0107,2021-025G,2026-06-07T23:07:09.736896,13.13469845,.00019149,87.8957,322.0473,102.2650,257.8693,0,U,48048,999,25231,.18325175E-4,.19E-6,0
ONEWEB-0101,2021-025H,2026-06-08T03:42:36.972576,13.13469893,.00016994,87.8946,322.0255,98.2533,261.8789,0,U,48049,999,25231,.67713408E-4,.37E-6,0
ONEWEB-0113,2021-025J,2026-06-08T04:21:52.602912,13.13894834,.00018534,87.8952,321.9316,92.5904,267.5438,0,U,48050,999,25242,-.55592616E-3,-.192E-5,0
ONEWEB-0112,2021-025K,2026-06-08T04:43:33.850848,13.13470458,.00016703,87.8955,321.9986,101.7295,258.4022,0,U,48051,999,25241,.34709891E-3,.14E-5,0
ONEWEB-0156,2021-025L,2026-06-08T04:55:44.987520,13.13469793,.00018942,87.8955,322.0070,97.6709,262.4635,0,U,48052,999,25239,.92260926E-3,.35E-5,0
ONEWEB-0161,2021-025M,2026-06-07T22:50:05.521920,13.13471044,.00018963,87.8952,322.0593,99.6848,260.4495,0,U,48053,999,25229,-.3875091E-3,-.129E-5,0
